STARLINK-5553           
1 56333U 23058S   26068.95189993  .00000206  00000+0  18477-4 0  9991
2 56333  97.6040  71.4390 0001823  87.1222 273.0214 15.05644171158230
KUIPER-00094            
1 64839U 25151Z   26068.91141455  .00007667  00000+0  56296-3 0  9992
2 64839  51.8894 261.3496 0005517 288.9664  71.0710 15.04318495 35878
